ONEWEB-0578             
1 56067U 23043X   25150.83672565 -.00000026  00000+0 -94197-4 0  9994
2 56067  87.9246 320.2316 0001916  89.9102 270.2251 13.21825142107720
ONEWEB-0579             
1 56068U 23043Y   25150.90295840  .00000040  00000+0  64735-4 0  9999
2 56068  87.9242 320.2049 0001642 101.0499 259.0819 13.21825055107741
ONEWEB-0581             
1 56069U 23043Z   25150.88556105  .00000043  00000+0  79549-4 0  9993
2 56069  87.9023 304.9925 0001381  88.1945 271.9344 13.16595284108651
ONEWEB-0609             
1 56070U 23043AA  25150.91961398 -.00000103  00000+0 -30754-3 0  9996
2 56070  87.9045 335.4149 0001871  93.7699 266.3645 13.15550180106178
ONEWEB-0613             
1 56071U 23043AB  25150.91486475 -.00000064  00000+0 -20323-3 0  9992
2 56071  87.9049 335.4259 0001656  97.0205 263.1114 13.15549471106173
ONEWEB-0630             
1 56072U 23043AC  25150.91010826 -.00000042  00000+0 -14478-3 0  9996
2 56072  87.9046 335.4053 0001748 101.2875 258.8452 13.15550136106161
ONEWEB-0632             
1 56073U 23043AD  25150.90535321 -.00000268  00000+0 -74704-3 0  9996
2 56073  87.9046 335.4258 0001589  88.8512 271.2800 13.15548031106167
ONEWEB-0633             
1 56074U 23043AE  25150.89901722  .00000089  00000+0  20160-3 0  9993
2 56074  87.9042 335.3957 0001887 104.9575 255.1765 13.15547275106147
